STARLINK-32362          
1 61845U 24202A   26068.46841238 -.00000599  00000+0 -12281-4 0  9994
2 61845  42.9981 228.0081 0000194 261.9955  98.0874 15.27573140 76016
HERMES-3                
1 63835U 25052BR  26068.93751242  .00020316  00000+0  69958-3 0  9995
2 63835  97.3987 324.6131 0007993 112.9583 247.2502 15.30039785 54863
